IRIDIUM 166             
1 43570U 18061B   24148.65553874  .00000391  00000+0  13250-3 0  9993
2 43570  86.3991  10.3950 0001902  87.7175 272.4238 14.34218238305824
IRIDIUM 158             
1 43571U 18061C   24149.53082121  .00000325  00000+0  10907-3 0  9997
2 43571  86.3987  10.0380 0002195  90.1213 270.0235 14.34216747305925
IRIDIUM 165             
1 43572U 18061D   24149.55618474  .00000323  00000+0  10841-3 0  9991
2 43572  86.3990  10.0595 0002162  91.3543 268.7901 14.34220032305949
IRIDIUM 155             
1 43573U 18061E   24149.16928807  .00000121  00000+0  36252-4 0  9994
2 43573  86.3987  10.1275 0001870  86.8084 273.3326 14.34217022305865
IRIDIUM 154             
1 43574U 18061F   24149.15026020  .00000350  00000+0  11786-3 0  9998
2 43574  86.3991  10.2322 0002367  84.5146 275.6320 14.34219566305900
IRIDIUM 163             
1 43575U 18061G   24149.54984141  .00000327  00000+0  10969-3 0  9995
2 43575  86.3987  10.0040 0002105  85.3080 274.8356 14.34219205305930
IRIDIUM 156             
1 43576U 18061H   24149.52447165  .00000322  00000+0  10796-3 0  9997
2 43576  86.3987  10.0208 0002113  91.0812 269.0626 14.34220057305914
IRIDIUM 164             
1 43577U 18061J   24149.15660632  .00000352  00000+0  11880-3 0  9991
2 43577  86.3989  10.2032 0002447  88.9014 271.2462 14.34218783305919
